{"type": "FeatureCollection", "features": [ {"type": "Feature", "properties": {"norad_id": 31185, "name": "FENGYUN 1C DEB", "group": "fengyun-1c-debris", "lat": 80.4025714613258, "lon": -86.43556574913156, "alt_km": 849.3323916104127, "timestamp": "2025-12-09T20:37:09.567953+00:00", "meta": {"OBJECT_NAME": "FENGYUN 1C DEB", "OBJECT_ID": "1999-025BJP", "EPOCH": "2025-12-03T06:44:56.905152", "MEAN_MOTION": 14.03019915, "ECCENTRICITY": 0.0041359, "INCLINATION": 98.8321, "RA_OF_ASC_NODE": 334.0356, "ARG_OF_PERICENTER": 132.5488, "MEAN_ANOMALY": 227.9182, "EPHEMERIS_TYPE": 0, "CLASSIFICATION_TYPE": "U", "NORAD_CAT_ID": 31185, "ELEMENT_SET_NO": 999, "REV_AT_EPOCH": 62204, "BSTAR": 0.0004459, "MEAN_MOTION_DOT": 6.55e-06, "MEAN_MOTION_DDOT": 0}, "tle": {"line1": "1 31185U 99025BJP 25337.28121418  .00000655  00000+0  44590-3 0  9990", "line2": "2 31185  98.8321 334.0356 0041359 132.5488 227.9182 14.03019915622046"}}, "geometry": {"type": "Point", "coordinates": [-86.43556574913156, 80.4025714613258]}}, {"type": "Feature", "properties": {"norad_id": 31186, "name": "FENGYUN 1C DEB", "group": "fengyun-1c-debris", "lat": 11.96041680542066, "lon": 81.10959089050243, "alt_km": 853.0721647257524, "timestamp": "2025-12-09T20:37:09.567963+00:00", "meta": {"OBJECT_NAME": "FENGYUN 1C DEB", "OBJECT_ID": "1999-025BJQ", "EPOCH": "2025-12-07T00:08:36.055104", "MEAN_MOTION": 14.12891869, "ECCENTRICITY": 0.00265947, "INCLINATION": 99.1777, "RA_OF_ASC_NODE": 256.2241, "ARG_OF_PERICENTER": 78.4554, "MEAN_ANOMALY": 344.6063, "EPHEMERIS_TYPE": 0, "CLASSIFICATION_TYPE": "U", "NORAD_CAT_ID": 31186, "ELEMENT_SET_NO": 999, "REV_AT_EPOCH": 96024, "BSTAR": 0.00076036897, "MEAN_MOTION_DOT": 1.373e-05, "MEAN_MOTION_DDOT": 0}, "tle": {"line1": "1 31186U 99025BJQ 25341.00597286  .00001373  00000+0  76037-3 0  9995", "line2": "2 31186  99.1777 256.2241 0026594  78.4554 344.6063 14.12891869960248"}}, "geometry": {"type": "Point", "coordinates": [81.10959089050243, 11.96041680542066]}}, {"type": "Feature", "properties": {"norad_id": 31187, "name": "FENGYUN 1C DEB", "group": "fengyun-1c-debris", "lat": -57.52973979901963, "lon": -138.19886573454994, "alt_km": 643.3760036659969, "timestamp": "2025-12-09T20:37:09.567973+00:00", "meta": {"OBJECT_NAME": "FENGYUN 1C DEB", "OBJECT_ID": "1999-025BJR", "EPOCH": "2025-12-08T20:12:10.911744", "MEAN_MOTION": 14.59115549, "ECCENTRICITY": 0.0220937, "INCLINATION": 99.2414, "RA_OF_ASC_NODE": 205.8443, "ARG_OF_PERICENTER": 235.6153, "MEAN_ANOMALY": 122.3976, "EPHEMERIS_TYPE": 0, "CLASSIFICATION_TYPE": "U", "NORAD_CAT_ID": 31187, "ELEMENT_SET_NO": 999, "REV_AT_EPOCH": 69043, "BSTAR": 0.0048964173, "MEAN_MOTION_DOT": 0.00032491, "MEAN_MOTION_DDOT": 0}, "tle": {"line1": "1 31187U 99025BJR 25342.84179296  .00032491  00000+0  48964-2 0  9998", "line2": "2 31187  99.2414 205.8443 0220937 235.6153 122.3976 14.59115549690431"}}, "geometry": {"type": "Point", "coordinates": [-138.19886573454994, -57.52973979901963]}}, {"type": "Feature", "properties": {"norad_id": 31188, "name": "FENGYUN 1C DEB", "group": "fengyun-1c-debris", "lat": 76.73917506758544, "lon": -87.5404669035242, "alt_km": 845.0794321438634, "timestamp": "2025-12-09T20:37:09.567983+00:00", "meta": {"OBJECT_NAME": "FENGYUN 1C DEB", "OBJECT_ID": "1999-025BJS", "EPOCH": "2025-12-08T20:46:55.031808", "MEAN_MOTION": 14.23782566, "ECCENTRICITY": 0.0059817, "INCLINATION": 98.7486, "RA_OF_ASC_NODE": 50.6724, "ARG_OF_PERICENTER": 260.6103, "MEAN_ANOMALY": 151.6071, "EPHEMERIS_TYPE": 0, "CLASSIFICATION_TYPE": "U", "NORAD_CAT_ID": 31188, "ELEMENT_SET_NO": 999, "REV_AT_EPOCH": 96281, "BSTAR": 0.0018396, "MEAN_MOTION_DOT": 4.241e-05, "MEAN_MOTION_DDOT": 0}, "tle": {"line1": "1 31188U 99025BJS 25342.86591472  .00004241  00000+0  18396-2 0  9993", "line2": "2 31188  98.7486  50.6724 0059817 260.6103 151.6071 14.23782566962818"}}, "geometry": {"type": "Point", "coordinates": [-87.5404669035242, 76.73917506758544]}}, {"type": "Feature", "properties": {"norad_id": 31190, "name": "FENGYUN 1C DEB", "group": "fengyun-1c-debris", "lat": 70.17282863164655, "lon": -157.8250058496068, "alt_km": 920.5057326803935, "timestamp": "2025-12-09T20:37:09.567993+00:00", "meta": {"OBJECT_NAME": "FENGYUN 1C DEB", "OBJECT_ID": "1999-025BJU", "EPOCH": "2025-12-08T18:26:23.655840", "MEAN_MOTION": 14.03585649, "ECCENTRICITY": 0.00674931, "INCLINATION": 98.8187, "RA_OF_ASC_NODE": 355.6145, "ARG_OF_PERICENTER": 270.6253, "MEAN_ANOMALY": 88.7181, "EPHEMERIS_TYPE": 0, "CLASSIFICATION_TYPE": "U", "NORAD_CAT_ID": 31190, "ELEMENT_SET_NO": 999, "REV_AT_EPOCH": 95491, "BSTAR": 0.0013180763, "MEAN_MOTION_DOT": 2.067e-05, "MEAN_MOTION_DDOT": 0}, "tle": {"line1": "1 31190U 99025BJU 25342.76832935  .00002067  00000+0  13181-2 0  9998", "line2": "2 31190  98.8187 355.6145 0067493 270.6253  88.7181 14.03585649954916"}}, "geometry": {"type": "Point", "coordinates": [-157.8250058496068, 70.17282863164655]}}, {"type": "Feature", "properties": {"norad_id": 31191, "name": "FENGYUN 1C DEB", "group": "fengyun-1c-debris", "lat": -43.64621328337852, "lon": -106.84814734062257, "alt_km": 787.3491285080654, "timestamp": "2025-12-09T20:37:09.568003+00:00", "meta": {"OBJECT_NAME": "FENGYUN 1C DEB", "OBJECT_ID": "1999-025BJV", "EPOCH": "2025-12-09T05:49:35.501664", "MEAN_MOTION": 14.40779508, "ECCENTRICITY": 0.0092096, "INCLINATION": 98.7826, "RA_OF_ASC_NODE": 244.0394, "ARG_OF_PERICENTER": 204.9676, "MEAN_ANOMALY": 154.7043, "EPHEMERIS_TYPE": 0, "CLASSIFICATION_TYPE": "U", "NORAD_CAT_ID": 31191, "ELEMENT_SET_NO": 999, "REV_AT_EPOCH": 97962, "BSTAR": 0.0006176, "MEAN_MOTION_DOT": 2.029e-05, "MEAN_MOTION_DDOT": 0}, "tle": {"line1": "1 31191U 99025BJV 25343.24277201  .00002029  00000+0  61760-3 0  9997", "line2": "2 31191  98.7826 244.0394 0092096 204.9676 154.7043 14.40779508979625"}}, "geometry": {"type": "Point", "coordinates": [-106.84814734062257, -43.64621328337852]}}, {"type": "Feature", "properties": {"norad_id": 31192, "name": "FENGYUN 1C DEB", "group": "fengyun-1c-debris", "lat": 58.747670786630515, "lon": -46.722497651502124, "alt_km": 698.7723206481478, "timestamp": "2025-12-09T20:37:09.568014+00:00", "meta": {"OBJECT_NAME": "FENGYUN 1C DEB", "OBJECT_ID": "1999-025BJW", "EPOCH": "2025-12-09T10:12:03.609792", "MEAN_MOTION": 14.2095197, "ECCENTRICITY": 0.02596184, "INCLINATION": 98.5532, "RA_OF_ASC_NODE": 327.2152, "ARG_OF_PERICENTER": 113.3115, "MEAN_ANOMALY": 249.5611, "EPHEMERIS_TYPE": 0, "CLASSIFICATION_TYPE": "U", "NORAD_CAT_ID": 31192, "ELEMENT_SET_NO": 999, "REV_AT_EPOCH": 96696, "BSTAR": 0.00043069773, "MEAN_MOTION_DOT": 1.267e-05, "MEAN_MOTION_DDOT": 0}, "tle": {"line1": "1 31192U 99025BJW 25343.42504178  .00001267  00000+0  43070-3 0  9991", "line2": "2 31192  98.5532 327.2152 0259618 113.3115 249.5611 14.20951970966960"}}, "geometry": {"type": "Point", "coordinates": [-46.722497651502124, 58.747670786630515]}}, {"type": "Feature", "properties": {"norad_id": 31194, "name": "FENGYUN 1C DEB", "group": "fengyun-1c-debris", "lat": -3.363865855768398, "lon": 52.27786062461765, "alt_km": 783.1452013300677, "timestamp": "2025-12-09T20:37:09.568024+00:00", "meta": {"OBJECT_NAME": "FENGYUN 1C DEB", "OBJECT_ID": "1999-025BJY", "EPOCH": "2025-12-09T03:02:51.313920", "MEAN_MOTION": 14.36613871, "ECCENTRICITY": 0.00575799, "INCLINATION": 98.9628, "RA_OF_ASC_NODE": 232.0477, "ARG_OF_PERICENTER": 289.958, "MEAN_ANOMALY": 69.5409, "EPHEMERIS_TYPE": 0, "CLASSIFICATION_TYPE": "U", "NORAD_CAT_ID": 31194, "ELEMENT_SET_NO": 999, "REV_AT_EPOCH": 97075, "BSTAR": 0.0013258832, "MEAN_MOTION_DOT": 3.928e-05, "MEAN_MOTION_DDOT": 0}, "tle": {"line1": "1 31194U 99025BJY 25343.12698280  .00003928  00000+0  13259-2 0  9999", "line2": "2 31194  98.9628 232.0477 0057579 289.9580  69.5409 14.36613871970752"}}, "geometry": {"type": "Point", "coordinates": [52.27786062461765, -3.363865855768398]}}, {"type": "Feature", "properties": {"norad_id": 31195, "name": "FENGYUN 1C DEB", "group": "fengyun-1c-debris", "lat": -81.02724371270463, "lon": 95.42097562490869, "alt_km": 855.3937596852356, "timestamp": "2025-12-09T20:37:09.568034+00:00", "meta": {"OBJECT_NAME": "FENGYUN 1C DEB", "OBJECT_ID": "1999-025BJZ", "EPOCH": "2025-12-07T19:35:03.175008", "MEAN_MOTION": 14.07975963, "ECCENTRICITY": 0.0171658, "INCLINATION": 98.7796, "RA_OF_ASC_NODE": 15.2673, "ARG_OF_PERICENTER": 195.0493, "MEAN_ANOMALY": 164.5533, "EPHEMERIS_TYPE": 0, "CLASSIFICATION_TYPE": "U", "NORAD_CAT_ID": 31195, "ELEMENT_SET_NO": 999, "REV_AT_EPOCH": 96029, "BSTAR": 0.00034191193, "MEAN_MOTION_DOT": 6.22e-06, "MEAN_MOTION_DDOT": 0}, "tle": {"line1": "1 31195U 99025BJZ 25341.81600897  .00000622  00000+0  34191-3 0  9998", "line2": "2 31195  98.7796  15.2673 0171658 195.0493 164.5533 14.07975963960294"}}, "geometry": {"type": "Point", "coordinates": [95.42097562490869, -81.02724371270463]}}, {"type": "Feature", "properties": {"norad_id": 31196, "name": "FENGYUN 1C DEB", "group": "fengyun-1c-debris", "lat": 33.965884752448986, "lon": -8.637763588863555, "alt_km": 846.015193931501, "timestamp": "2025-12-09T20:37:09.568044+00:00", "meta": {"OBJECT_NAME": "FENGYUN 1C DEB", "OBJECT_ID": "1999-025BKA", "EPOCH": "2025-12-08T19:11:13.432992", "MEAN_MOTION": 14.25445822, "ECCENTRICITY": 0.00577315, "INCLINATION": 98.5268, "RA_OF_ASC_NODE": 356.1324, "ARG_OF_PERICENTER": 223.7518, "MEAN_ANOMALY": 135.908, "EPHEMERIS_TYPE": 0, "CLASSIFICATION_TYPE": "U", "NORAD_CAT_ID": 31196, "ELEMENT_SET_NO": 999, "REV_AT_EPOCH": 63439, "BSTAR": 0.00095478472, "MEAN_MOTION_DOT": 2.251e-05, "MEAN_MOTION_DDOT": 0}, "tle": {"line1": "1 31196U 99025BKA 25342.79946103  .00002251  00000+0  95478-3 0  9995", "line2": "2 31196  98.5268 356.1324 0057731 223.7518 135.9080 14.25445822634393"}}, "geometry": {"type": "Point", "coordinates": [-8.637763588863555, 33.965884752448986]}}]}